0 YAOGAN 11 DEB
1 38175U 10047E   13282.73375178  .00001114  00000-0  37015-3 0  2307
2 38175 098.0230 253.8150 0217328 109.7083 013.2493 14.26917406601732
0 YAOGAN 11 DEB
1 38175U 10047E   13283.78453856  .00001267  00000-0  41916-3 0  2318
2 38175 098.0230 254.7799 0217347 106.6039 011.0154 14.26920519601873
0 YAOGAN 11 DEB
1 38175U 10047E   13286.38561920  .00001305  00000-0  43122-3 0  2335
2 38175 098.0234 257.1682 0217374 098.9219 052.5035 14.26925622602259
0 YAOGAN 11 DEB
1 38175U 10047E   13287.78126397  .00001829  00000-0  59890-3 0  2346
2 38175 098.0237 258.4496 0217376 094.8002 021.8165 14.26930972602444
0 YAOGAN 11 DEB
1 38175U 10047E   13289.17211926  .00001895  00000-0  61998-3 0  2350
2 38175 098.0241 259.7267 0217345 090.6944 326.5504 14.26938110602640
0 YAOGAN 11 DEB
1 38175U 10047E   13290.72754865  .00002040  00000-0  66632-3 0  2361
2 38175 098.0246 261.1549 0217338 086.0977 036.7351 14.26943349602877
0 YAOGAN 11 DEB
1 38175U 10047E   13292.18919076  .00002186  00000-0  71313-3 0  2374
2 38175 098.0249 262.4971 0217318 081.7811 345.1646 14.26946634603077
0 YAOGAN 11 DEB
1 38175U 10047E   13293.39736606  .00002434  00000-0  79251-3 0  2380
2 38175 098.0251 263.6067 0217271 078.2116 071.5606 14.26952498603257
0 YAOGAN 11 DEB
1 38175U 10047E   13294.72428389  .00002720  00000-0  88417-3 0  2397
2 38175 098.0251 264.8255 0217264 074.2911 047.9656 14.26958399603449
0 YAOGAN 11 DEB
1 38175U 10047E   13296.18584788  .00002759  00000-0  89647-3 0  2405
2 38175 098.0251 266.1680 0217214 069.9772 356.0728 14.26965813603642
